[{"OBJECT_NAME":"TIANMU-1 13","OBJECT_ID":"2023-205C","EPOCH":"2026-03-10T00:00:50.036832","MEAN_MOTION":15.25862583,"ECCENTRICITY":0.00064025,"INCLINATION":97.3565,"RA_OF_ASC_NODE":92.1641,"ARG_OF_PERICENTER":331.9635,"MEAN_ANOMALY":28.1258,"EPHEMERIS_TYPE":0,"CLASSIFICATION_TYPE":"U","NORAD_CAT_ID":58647,"ELEMENT_SET_NO":999,"REV_AT_EPOCH":12237,"BSTAR":0.00032666188,"MEAN_MOTION_DOT":8.299e-5,"MEAN_MOTION_DDOT":0},{"OBJECT_NAME":"TRANSPORTER-14 OBJECT D","OBJECT_ID":"2025-135D","EPOCH":"2026-03-09T20:39:49.544640","MEAN_MOTION":15.23890173,"ECCENTRICITY":0.00054537,"INCLINATION":97.459,"RA_OF_ASC_NODE":185.3159,"ARG_OF_PERICENTER":147.9892,"MEAN_ANOMALY":212.1678,"EPHEMERIS_TYPE":0,"CLASSIFICATION_TYPE":"U","NORAD_CAT_ID":64531,"ELEMENT_SET_NO":999,"REV_AT_EPOCH":3978,"BSTAR":0.00064565207,"MEAN_MOTION_DOT":0.00015541,"MEAN_MOTION_DDOT":0}]
